[Satellite]
VERSION=1.1
NAME=FORMOSAT 3C
NICKNAME=FORMOSAT 3C
TLE1=1 29049U 06011C   15055.03622862  .00000481  00000-0  20789-3 0  9999
TLE2=2 29049  72.0213 183.0236 0034525 168.8712 311.3272 14.28232140462486
